[
  {
    "COMMENT": "GENERATED VIA SPACETRACK.ORG API",
    "ORIGINATOR": "18 SPCS",
    "NORAD_CAT_ID": "20436",
    "OBJECT_NAME": "SPOT 2",
    "OBJECT_TYPE": "PAYLOAD",
    "CLASSIFICATION_TYPE": "U",
    "INTLDES": "90005A",
    "EPOCH": "2023-05-29 04:20:53",
    "EPOCH_MICROSECONDS": "832768",
    "MEAN_MOTION": "14.68069842",
    "ECCENTRICITY": "0.014102",
    "INCLINATION": "98.6634",
    "RA_OF_ASC_NODE": "219.3661",
    "ARG_OF_PERICENTER": "343.495",
    "MEAN_ANOMALY": "16.1685",
    "EPHEMERIS_TYPE": "0",
    "ELEMENT_SET_NO": "999",
    "REV_AT_EPOCH": "75138",
    "BSTAR": "0.00012578",
    "MEAN_MOTION_DOT": "0.00000773",
    "MEAN_MOTION_DDOT": "0",
    "FILE": "3920065",
    "TLE_LINE0": "0 SPOT 2",
    "TLE_LINE1": "1 20436U 90005A   23149.18117862  .00000773  00000-0  12578-3 0  9995",
    "TLE_LINE2": "2 20436  98.6634 219.3661 0141020 343.4950  16.1685 14.68069842751386",
    "OBJECT_ID": "1990-005A",
    "OBJECT_NUMBER": "20436",
    "SEMIMAJOR_AXIS": "7045.374",
    "PERIOD": "98.088",
    "APOGEE": "766.592",
    "PERIGEE": "567.885",
    "DECAYED": "0"
  },
  {
    "COMMENT": "GENERATED VIA SPACETRACK.ORG API",
    "ORIGINATOR": "18 SPCS",
    "NORAD_CAT_ID": "20436",
    "OBJECT_NAME": "SPOT 2",
    "OBJECT_TYPE": "PAYLOAD",
    "CLASSIFICATION_TYPE": "U",
    "INTLDES": "90005A",
    "EPOCH": "2023-05-29 19:04:11",
    "EPOCH_MICROSECONDS": "752608",
    "MEAN_MOTION": "14.68070668",
    "ECCENTRICITY": "0.0140976",
    "INCLINATION": "98.6633",
    "RA_OF_ASC_NODE": "220.0154",
    "ARG_OF_PERICENTER": "341.5793",
    "MEAN_ANOMALY": "18.0333",
    "EPHEMERIS_TYPE": "0",
    "ELEMENT_SET_NO": "999",
    "REV_AT_EPOCH": "75147",
    "BSTAR": "0.00011772",
    "MEAN_MOTION_DOT": "0.00000719",
    "MEAN_MOTION_DDOT": "0",
    "FILE": "3920354",
    "TLE_LINE0": "0 SPOT 2",
    "TLE_LINE1": "1 20436U 90005A   23149.79458047  .00000719  00000-0  11772-3 0  9990",
    "TLE_LINE2": "2 20436  98.6633 220.0154 0140976 341.5793  18.0333 14.68070668751473",
    "OBJECT_ID": "1990-005A",
    "OBJECT_NUMBER": "20436",
    "SEMIMAJOR_AXIS": "7045.371",
    "PERIOD": "98.088",
    "APOGEE": "766.559",
    "PERIGEE": "567.913",
    "DECAYED": "0"
  },
  {
    "COMMENT": "GENERATED VIA SPACETRACK.ORG API",
    "ORIGINATOR": "18 SPCS",
    "NORAD_CAT_ID": "20436",
    "OBJECT_NAME": "SPOT 2",
    "OBJECT_TYPE": "PAYLOAD",
    "CLASSIFICATION_TYPE": "U",
    "INTLDES": "90005A",
    "EPOCH": "2023-05-30 04:53:03",
    "EPOCH_MICROSECONDS": "691680",
    "MEAN_MOTION": "14.68071188",
    "ECCENTRICITY": "0.0140941",
    "INCLINATION": "98.6633",
    "RA_OF_ASC_NODE": "220.4483",
    "ARG_OF_PERICENTER": "340.2975",
    "MEAN_ANOMALY": "19.2815",
    "EPHEMERIS_TYPE": "0",
    "ELEMENT_SET_NO": "999",
    "REV_AT_EPOCH": "75155",
    "BSTAR": "0.00011299",
    "MEAN_MOTION_DOT": "0.00000688",
    "MEAN_MOTION_DDOT": "0",
    "FILE": "3920779",
    "TLE_LINE0": "0 SPOT 2",
    "TLE_LINE1": "1 20436U 90005A   23150.20351495  .00000688  00000-0  11299-3 0  9996",
    "TLE_LINE2": "2 20436  98.6633 220.4483 0140941 340.2975  19.2815 14.68071188751557",
    "OBJECT_ID": "1990-005A",
    "OBJECT_NUMBER": "20436",
    "SEMIMAJOR_AXIS": "7045.369",
    "PERIOD": "98.088",
    "APOGEE": "766.532",
    "PERIGEE": "567.936",
    "DECAYED": "0"
  },
  {
    "COMMENT": "GENERATED VIA SPACETRACK.ORG API",
    "ORIGINATOR": "18 SPCS",
    "NORAD_CAT_ID": "20436",
    "OBJECT_NAME": "SPOT 2",
    "OBJECT_TYPE": "PAYLOAD",
    "CLASSIFICATION_TYPE": "U",
    "INTLDES": "90005A",
    "EPOCH": "2023-05-30 04:53:03",
    "EPOCH_MICROSECONDS": "691680",
    "MEAN_MOTION": "14.68071188",
    "ECCENTRICITY": "0.0140941",
    "INCLINATION": "98.6633",
    "RA_OF_ASC_NODE": "220.4483",
    "ARG_OF_PERICENTER": "340.2975",
    "MEAN_ANOMALY": "19.2815",
    "EPHEMERIS_TYPE": "0",
    "ELEMENT_SET_NO": "999",
    "REV_AT_EPOCH": "75153",
    "BSTAR": "0.00011299",
    "MEAN_MOTION_DOT": "0.00000688",
    "MEAN_MOTION_DDOT": "0",
    "FILE": "3920920",
    "TLE_LINE0": "0 SPOT 2",
    "TLE_LINE1": "1 20436U 90005A   23150.20351495  .00000688  00000-0  11299-3 0  9996",
    "TLE_LINE2": "2 20436  98.6633 220.4483 0140941 340.2975  19.2815 14.68071188751535",
    "OBJECT_ID": "1990-005A",
    "OBJECT_NUMBER": "20436",
    "SEMIMAJOR_AXIS": "7045.369",
    "PERIOD": "98.088",
    "APOGEE": "766.532",
    "PERIGEE": "567.936",
    "DECAYED": "0"
  },
  {
    "COMMENT": "GENERATED VIA SPACETRACK.ORG API",
    "ORIGINATOR": "18 SPCS",
    "NORAD_CAT_ID": "20436",
    "OBJECT_NAME": "SPOT 2",
    "OBJECT_TYPE": "PAYLOAD",
    "CLASSIFICATION_TYPE": "U",
    "INTLDES": "90005A",
    "EPOCH": "2023-05-30 19:36:21",
    "EPOCH_MICROSECONDS": "569184",
    "MEAN_MOTION": "14.68072241",
    "ECCENTRICITY": "0.0140902",
    "INCLINATION": "98.6633",
    "RA_OF_ASC_NODE": "221.0977",
    "ARG_OF_PERICENTER": "338.3778",
    "MEAN_ANOMALY": "21.1512",
    "EPHEMERIS_TYPE": "0",
    "ELEMENT_SET_NO": "999",
    "REV_AT_EPOCH": "75162",
    "BSTAR": "0.00011334",
    "MEAN_MOTION_DOT": "0.0000069",
    "MEAN_MOTION_DDOT": "0",
    "FILE": "3921192",
    "TLE_LINE0": "0 SPOT 2",
    "TLE_LINE1": "1 20436U 90005A   23150.81691631  .00000690  00000-0  11334-3 0  9995",
    "TLE_LINE2": "2 20436  98.6633 221.0977 0140902 338.3778  21.1512 14.68072241751623",
    "OBJECT_ID": "1990-005A",
    "OBJECT_NUMBER": "20436",
    "SEMIMAJOR_AXIS": "7045.366",
    "PERIOD": "98.088",
    "APOGEE": "766.502",
    "PERIGEE": "567.960",
    "DECAYED": "0"
  },
  {
    "COMMENT": "GENERATED VIA SPACETRACK.ORG API",
    "ORIGINATOR": "18 SPCS",
    "NORAD_CAT_ID": "20436",
    "OBJECT_NAME": "SPOT 2",
    "OBJECT_TYPE": "PAYLOAD",
    "CLASSIFICATION_TYPE": "U",
    "INTLDES": "90005A",
    "EPOCH": "2023-05-31 03:47:04",
    "EPOCH_MICROSECONDS": "827264",
    "MEAN_MOTION": "14.68073005",
    "ECCENTRICITY": "0.0140883",
    "INCLINATION": "98.6633",
    "RA_OF_ASC_NODE": "221.4584",
    "ARG_OF_PERICENTER": "337.3094",
    "MEAN_ANOMALY": "22.192",
    "EPHEMERIS_TYPE": "0",
    "ELEMENT_SET_NO": "999",
    "REV_AT_EPOCH": "75167",
    "BSTAR": "0.00011914",
    "MEAN_MOTION_DOT": "0.00000728",
    "MEAN_MOTION_DDOT": "0",
    "FILE": "3921767",
    "TLE_LINE0": "0 SPOT 2",
    "TLE_LINE1": "1 20436U 90005A   23151.15769476  .00000728  00000-0  11914-3 0  9992",
    "TLE_LINE2": "2 20436  98.6633 221.4584 0140883 337.3094  22.1920 14.68073005751677",
    "OBJECT_ID": "1990-005A",
    "OBJECT_NUMBER": "20436",
    "SEMIMAJOR_AXIS": "7045.364",
    "PERIOD": "98.088",
    "APOGEE": "766.486",
    "PERIGEE": "567.971",
    "DECAYED": "0"
  },
  {
    "COMMENT": "GENERATED VIA SPACETRACK.ORG API",
    "ORIGINATOR": "18 SPCS",
    "NORAD_CAT_ID": "20436",
    "OBJECT_NAME": "SPOT 2",
    "OBJECT_TYPE": "PAYLOAD",
    "CLASSIFICATION_TYPE": "U",
    "INTLDES": "90005A",
    "EPOCH": "2023-05-31 18:30:22",
    "EPOCH_MICROSECONDS": "634784",
    "MEAN_MOTION": "14.68074342",
    "ECCENTRICITY": "0.0140845",
    "INCLINATION": "98.6633",
    "RA_OF_ASC_NODE": "222.1078",
    "ARG_OF_PERICENTER": "335.3894",
    "MEAN_ANOMALY": "24.0631",
    "EPHEMERIS_TYPE": "0",
    "ELEMENT_SET_NO": "999",
    "REV_AT_EPOCH": "75178",
    "BSTAR": "0.00012493",
    "MEAN_MOTION_DOT": "0.00000767",
    "MEAN_MOTION_DDOT": "0",
    "FILE": "3921981",
    "TLE_LINE0": "0 SPOT 2",
    "TLE_LINE1": "1 20436U 90005A   23151.77109531  .00000767  00000-0  12493-3 0  9996",
    "TLE_LINE2": "2 20436  98.6633 222.1078 0140845 335.3894  24.0631 14.68074342751784",
    "OBJECT_ID": "1990-005A",
    "OBJECT_NUMBER": "20436",
    "SEMIMAJOR_AXIS": "7045.359",
    "PERIOD": "98.088",
    "APOGEE": "766.455",
    "PERIGEE": "567.994",
    "DECAYED": "0"
  },
  {
    "COMMENT": "GENERATED VIA SPACETRACK.ORG API",
    "ORIGINATOR": "18 SPCS",
    "NORAD_CAT_ID": "20436",
    "OBJECT_NAME": "SPOT 2",
    "OBJECT_TYPE": "PAYLOAD",
    "CLASSIFICATION_TYPE": "U",
    "INTLDES": "90005A",
    "EPOCH": "2023-05-31 21:46:39",
    "EPOCH_MICROSECONDS": "925920",
    "MEAN_MOTION": "14.68074551",
    "ECCENTRICITY": "0.0140837",
    "INCLINATION": "98.6633",
    "RA_OF_ASC_NODE": "222.2521",
    "ARG_OF_PERICENTER": "334.9627",
    "MEAN_ANOMALY": "24.4789",
    "EPHEMERIS_TYPE": "0",
    "ELEMENT_SET_NO": "999",
    "REV_AT_EPOCH": "75178",
    "BSTAR": "0.00012446",
    "MEAN_MOTION_DOT": "0.00000764",
    "MEAN_MOTION_DDOT": "0",
    "FILE": "3922037",
    "TLE_LINE0": "0 SPOT 2",
    "TLE_LINE1": "1 20436U 90005A   23151.90740655  .00000764  00000-0  12446-3 0  9994",
    "TLE_LINE2": "2 20436  98.6633 222.2521 0140837 334.9627  24.4789 14.68074551751788",
    "OBJECT_ID": "1990-005A",
    "OBJECT_NUMBER": "20436",
    "SEMIMAJOR_AXIS": "7045.359",
    "PERIOD": "98.088",
    "APOGEE": "766.448",
    "PERIGEE": "567.999",
    "DECAYED": "0"
  },
  {
    "COMMENT": "GENERATED VIA SPACETRACK.ORG API",
    "ORIGINATOR": "18 SPCS",
    "NORAD_CAT_ID": "20436",
    "OBJECT_NAME": "SPOT 2",
    "OBJECT_TYPE": "PAYLOAD",
    "CLASSIFICATION_TYPE": "U",
    "INTLDES": "90005A",
    "EPOCH": "2023-06-01 04:19:14",
    "EPOCH_MICROSECONDS": "491776",
    "MEAN_MOTION": "14.68075333",
    "ECCENTRICITY": "0.0140821",
    "INCLINATION": "98.6632",
    "RA_OF_ASC_NODE": "222.5407",
    "ARG_OF_PERICENTER": "334.1082",
    "MEAN_ANOMALY": "25.3119",
    "EPHEMERIS_TYPE": "0",
    "ELEMENT_SET_NO": "999",
    "REV_AT_EPOCH": "75182",
    "BSTAR": "0.00013125",
    "MEAN_MOTION_DOT": "0.00000809",
    "MEAN_MOTION_DDOT": "0",
    "FILE": "3922365",
    "TLE_LINE0": "0 SPOT 2",
    "TLE_LINE1": "1 20436U 90005A   23152.18002884  .00000809  00000-0  13125-3 0  9995",
    "TLE_LINE2": "2 20436  98.6632 222.5407 0140821 334.1082  25.3119 14.68075333751824",
    "OBJECT_ID": "1990-005A",
    "OBJECT_NUMBER": "20436",
    "SEMIMAJOR_AXIS": "7045.356",
    "PERIOD": "98.088",
    "APOGEE": "766.434",
    "PERIGEE": "568.008",
    "DECAYED": "0"
  }
]